{"type": "FeatureCollection", "features": [ {"type": "Feature", "properties": {"norad_id": 33492, "name": "GOSAT (IBUKI)", "group": "resource", "lat": 24.474360028972036, "lon": 105.14492040976829, "alt_km": 668.1362381181079, "timestamp": "2025-12-26T10:30:49.916029+00:00", "meta": {"OBJECT_NAME": "GOSAT (IBUKI)", "OBJECT_ID": "2009-002A", "EPOCH": "2025-12-26T03:51:21.830112", "MEAN_MOTION": 14.67550296, "ECCENTRICITY": 0.0001034, "INCLINATION": 98.0771, "RA_OF_ASC_NODE": 108.5776, "ARG_OF_PERICENTER": 105.7696, "MEAN_ANOMALY": 254.3623, "EPHEMERIS_TYPE": 0, "CLASSIFICATION_TYPE": "U", "NORAD_CAT_ID": 33492, "ELEMENT_SET_NO": 999, "REV_AT_EPOCH": 90608, "BSTAR": 0.00016105, "MEAN_MOTION_DOT": 8.66e-06, "MEAN_MOTION_DDOT": 0}, "tle": {"line1": "1 33492U 09002A   25360.16066933  .00000866  00000+0  16105-3 0  9997", "line2": "2 33492  98.0771 108.5776 0001034 105.7696 254.3623 14.67550296906084"}}, "geometry": {"type": "Point", "coordinates": [105.14492040976829, 24.474360028972036]}}, {"type": "Feature", "properties": {"norad_id": 35681, "name": "DEIMOS-1", "group": "resource", "lat": 70.80473739190894, "lon": 3.323278248878123, "alt_km": 637.2819056522876, "timestamp": "2025-12-26T10:30:49.916040+00:00", "meta": {"OBJECT_NAME": "DEIMOS-1", "OBJECT_ID": "2009-041A", "EPOCH": "2025-12-26T05:08:36.905856", "MEAN_MOTION": 14.74972371, "ECCENTRICITY": 0.0002439, "INCLINATION": 97.7158, "RA_OF_ASC_NODE": 160.1911, "ARG_OF_PERICENTER": 59.0529, "MEAN_ANOMALY": 301.092, "EPHEMERIS_TYPE": 0, "CLASSIFICATION_TYPE": "U", "NORAD_CAT_ID": 35681, "ELEMENT_SET_NO": 999, "REV_AT_EPOCH": 88138, "BSTAR": 0.00012759, "MEAN_MOTION_DOT": 8.1e-06, "MEAN_MOTION_DDOT": 0}, "tle": {"line1": "1 35681U 09041A   25360.21431604  .00000810  00000+0  12759-3 0  9999", "line2": "2 35681  97.7158 160.1911 0002439  59.0529 301.0920 14.74972371881387"}}, "geometry": {"type": "Point", "coordinates": [3.323278248878123, 70.80473739190894]}}, {"type": "Feature", "properties": {"norad_id": 35682, "name": "DUBAISAT-1", "group": "resource", "lat": 25.705465005070717, "lon": 127.04476586333567, "alt_km": 648.7975546704074, "timestamp": "2025-12-26T10:30:49.916056+00:00", "meta": {"OBJECT_NAME": "DUBAISAT-1", "OBJECT_ID": "2009-041B", "EPOCH": "2025-12-25T22:59:48.723648", "MEAN_MOTION": 14.74639444, "ECCENTRICITY": 0.0009251, "INCLINATION": 97.9799, "RA_OF_ASC_NODE": 130.444, "ARG_OF_PERICENTER": 266.7795, "MEAN_ANOMALY": 93.2355, "EPHEMERIS_TYPE": 0, "CLASSIFICATION_TYPE": "U", "NORAD_CAT_ID": 35682, "ELEMENT_SET_NO": 999, "REV_AT_EPOCH": 87956, "BSTAR": 0.00020689, "MEAN_MOTION_DOT": 1.33e-05, "MEAN_MOTION_DDOT": 0}, "tle": {"line1": "1 35682U 09041B   25359.95820282  .00001330  00000+0  20689-3 0  9992", "line2": "2 35682  97.9799 130.4440 0009251 266.7795  93.2355 14.74639444879569"}}, "geometry": {"type": "Point", "coordinates": [127.04476586333567, 25.705465005070717]}}, {"type": "Feature", "properties": {"norad_id": 35931, "name": "OCEANSAT-2", "group": "resource", "lat": 67.95712129191747, "lon": -159.4304327570887, "alt_km": 890.7585421834074, "timestamp": "2025-12-26T10:30:49.916068+00:00", "meta": {"OBJECT_NAME": "OCEANSAT-2", "OBJECT_ID": "2009-051A", "EPOCH": "2025-12-26T04:50:30.244416", "MEAN_MOTION": 13.99622973, "ECCENTRICITY": 0.0015874, "INCLINATION": 98.2218, "RA_OF_ASC_NODE": 359.4362, "ARG_OF_PERICENTER": 9.637, "MEAN_ANOMALY": 350.5098, "EPHEMERIS_TYPE": 0, "CLASSIFICATION_TYPE": "U", "NORAD_CAT_ID": 35931, "ELEMENT_SET_NO": 999, "REV_AT_EPOCH": 85513, "BSTAR": 3.0773e-05, "MEAN_MOTION_DOT": 8e-08, "MEAN_MOTION_DDOT": 0}, "tle": {"line1": "1 35931U 09051A   25360.20173894  .00000008  00000+0  30773-4 0  9997", "line2": "2 35931  98.2218 359.4362 0015874   9.6370 350.5098 13.99622973855138"}}, "geometry": {"type": "Point", "coordinates": [-159.4304327570887, 67.95712129191747]}}, {"type": "Feature", "properties": {"norad_id": 35946, "name": "WORLDVIEW-2 (WV-2)", "group": "resource", "lat": -50.94275101219764, "lon": 81.92524432516011, "alt_km": 772.8036933912326, "timestamp": "2025-12-26T10:30:49.916079+00:00", "meta": {"OBJECT_NAME": "WORLDVIEW-2 (WV-2)", "OBJECT_ID": "2009-055A", "EPOCH": "2025-12-26T04:04:22.486080", "MEAN_MOTION": 14.37729843, "ECCENTRICITY": 0.0004661, "INCLINATION": 98.4771, "RA_OF_ASC_NODE": 71.0697, "ARG_OF_PERICENTER": 37.3366, "MEAN_ANOMALY": 322.8144, "EPHEMERIS_TYPE": 0, "CLASSIFICATION_TYPE": "U", "NORAD_CAT_ID": 35946, "ELEMENT_SET_NO": 999, "REV_AT_EPOCH": 85078, "BSTAR": 6.9883e-05, "MEAN_MOTION_DOT": 1.67e-06, "MEAN_MOTION_DDOT": 0}, "tle": {"line1": "1 35946U 09055A   25360.16970470  .00000167  00000+0  69883-4 0  9997", "line2": "2 35946  98.4771  71.0697 0004661  37.3366 322.8144 14.37729843850780"}}, "geometry": {"type": "Point", "coordinates": [81.92524432516011, -50.94275101219764]}}, {"type": "Feature", "properties": {"norad_id": 36036, "name": "SMOS", "group": "resource", "lat": 79.2422904542781, "lon": 133.9032500973594, "alt_km": 751.1937100178175, "timestamp": "2025-12-26T10:30:49.916089+00:00", "meta": {"OBJECT_NAME": "SMOS", "OBJECT_ID": "2009-059A", "EPOCH": "2025-12-26T03:27:24.344064", "MEAN_MOTION": 14.39752905, "ECCENTRICITY": 0.0001047, "INCLINATION": 98.4382, "RA_OF_ASC_NODE": 184.9941, "ARG_OF_PERICENTER": 83.4772, "MEAN_ANOMALY": 276.6536, "EPHEMERIS_TYPE": 0, "CLASSIFICATION_TYPE": "U", "NORAD_CAT_ID": 36036, "ELEMENT_SET_NO": 999, "REV_AT_EPOCH": 84855, "BSTAR": 0.00013557, "MEAN_MOTION_DOT": 3.81e-06, "MEAN_MOTION_DDOT": 0}, "tle": {"line1": "1 36036U 09059A   25360.14403176  .00000381  00000+0  13557-3 0  9998", "line2": "2 36036  98.4382 184.9941 0001047  83.4772 276.6536 14.39752905848553"}}, "geometry": {"type": "Point", "coordinates": [133.9032500973594, 79.2422904542781]}}, {"type": "Feature", "properties": {"norad_id": 36110, "name": "YAOGAN-7", "group": "resource", "lat": -20.741971477797506, "lon": -114.79008212924096, "alt_km": 645.787493025462, "timestamp": "2025-12-26T10:30:49.916100+00:00", "meta": {"OBJECT_NAME": "YAOGAN-7", "OBJECT_ID": "2009-069A", "EPOCH": "2025-12-26T02:28:59.852064", "MEAN_MOTION": 14.77751393, "ECCENTRICITY": 0.0023487, "INCLINATION": 98.0293, "RA_OF_ASC_NODE": 241.8123, "ARG_OF_PERICENTER": 235.7484, "MEAN_ANOMALY": 124.1501, "EPHEMERIS_TYPE": 0, "CLASSIFICATION_TYPE": "U", "NORAD_CAT_ID": 36110, "ELEMENT_SET_NO": 999, "REV_AT_EPOCH": 86406, "BSTAR": 9.6002e-05, "MEAN_MOTION_DOT": 6.38e-06, "MEAN_MOTION_DDOT": 0}, "tle": {"line1": "1 36110U 09069A   25360.10347051  .00000638  00000+0  96002-4 0  9999", "line2": "2 36110  98.0293 241.8123 0023487 235.7484 124.1501 14.77751393864067"}}, "geometry": {"type": "Point", "coordinates": [-114.79008212924096, -20.741971477797506]}}, {"type": "Feature", "properties": {"norad_id": 36605, "name": "TANDEM-X", "group": "resource", "lat": 74.9905504265951, "lon": -145.19007751391285, "alt_km": 500.07892663456187, "timestamp": "2025-12-26T10:30:49.916110+00:00", "meta": {"OBJECT_NAME": "TANDEM-X", "OBJECT_ID": "2010-030A", "EPOCH": "2025-12-25T13:30:40.340160", "MEAN_MOTION": 15.19154497, "ECCENTRICITY": 0.0001775, "INCLINATION": 97.4454, "RA_OF_ASC_NODE": 4.7557, "ARG_OF_PERICENTER": 93.2666, "MEAN_ANOMALY": 266.8771, "EPHEMERIS_TYPE": 0, "CLASSIFICATION_TYPE": "U", "NORAD_CAT_ID": 36605, "ELEMENT_SET_NO": 999, "REV_AT_EPOCH": 86028, "BSTAR": 5.683e-05, "MEAN_MOTION_DOT": 1.127e-05, "MEAN_MOTION_DDOT": 0}, "tle": {"line1": "1 36605U 10030A   25359.56296690  .00001127  00000+0  56830-4 0  9997", "line2": "2 36605  97.4454   4.7557 0001775  93.2666 266.8771 15.19154497860282"}}, "geometry": {"type": "Point", "coordinates": [-145.19007751391285, 74.9905504265951]}}, {"type": "Feature", "properties": {"norad_id": 36795, "name": "CARTOSAT-2B", "group": "resource", "lat": -44.805220192141476, "lon": 56.82909160070683, "alt_km": 638.694042077439, "timestamp": "2025-12-26T10:30:49.916121+00:00", "meta": {"OBJECT_NAME": "CARTOSAT-2B", "OBJECT_ID": "2010-035A", "EPOCH": "2025-12-26T04:13:20.351136", "MEAN_MOTION": 14.78746014, "ECCENTRICITY": 0.001249, "INCLINATION": 97.7831, "RA_OF_ASC_NODE": 48.7679, "ARG_OF_PERICENTER": 36.9481, "MEAN_ANOMALY": 323.2588, "EPHEMERIS_TYPE": 0, "CLASSIFICATION_TYPE": "U", "NORAD_CAT_ID": 36795, "ELEMENT_SET_NO": 999, "REV_AT_EPOCH": 83428, "BSTAR": 0.00017325, "MEAN_MOTION_DOT": 1.223e-05, "MEAN_MOTION_DDOT": 0}, "tle": {"line1": "1 36795U 10035A   25360.17592999  .00001223  00000+0  17325-3 0  9994", "line2": "2 36795  97.7831  48.7679 0012490  36.9481 323.2588 14.78746014834283"}}, "geometry": {"type": "Point", "coordinates": [56.82909160070683, -44.805220192141476]}}, {"type": "Feature", "properties": {"norad_id": 36834, "name": "YAOGAN-10", "group": "resource", "lat": -34.07059244831631, "lon": 25.553285339844436, "alt_km": 621.2463538384864, "timestamp": "2025-12-26T10:30:49.916131+00:00", "meta": {"OBJECT_NAME": "YAOGAN-10", "OBJECT_ID": "2010-038A", "EPOCH": "2025-12-26T04:36:19.079136", "MEAN_MOTION": 14.84658538, "ECCENTRICITY": 0.0001374, "INCLINATION": 97.9135, "RA_OF_ASC_NODE": 19.9111, "ARG_OF_PERICENTER": 78.3626, "MEAN_ANOMALY": 12.2872, "EPHEMERIS_TYPE": 0, "CLASSIFICATION_TYPE": "U", "NORAD_CAT_ID": 36834, "ELEMENT_SET_NO": 999, "REV_AT_EPOCH": 83153, "BSTAR": 0.00022235, "MEAN_MOTION_DOT": 1.827e-05, "MEAN_MOTION_DDOT": 0}, "tle": {"line1": "1 36834U 10038A   25360.19188749  .00001827  00000+0  22235-3 0  9993", "line2": "2 36834  97.9135  19.9111 0001374  78.3626  12.2872 14.84658538831533"}}, "geometry": {"type": "Point", "coordinates": [25.553285339844436, -34.07059244831631]}}]}